1998-067TD              
1 51441U 98067TD  22201.43702042  .00077439  00000+0  76460-3 0  9999
2 51441  51.6360 162.7005 0007189  18.1940 341.9312 15.65185387 27334
PATCOOL                 
1 51442U 98067TE  22201.34506798  .00077906  00000+0  75815-3 0  9992
2 51442  51.6344 162.8191 0007419  22.5339 337.5981 15.65544039 27281
LIGHT-1                 
1 51509U 98067TG  22201.48206301  .00033737  00000+0  39404-3 0  9996
2 51509  51.6387 164.5168 0008058   8.0313 352.0808 15.61248682 26051
PROGRESS-MS 19          
1 51660U 22014A   22201.40857775  .00008240  00000+0  15195-3 0  9994
2 51660  51.6419 172.0419 0005020  30.4744  71.6173 15.50043356350330
SOYUZ-MS 21             
1 52086U 22028A   22201.40857775  .00008240  00000+0  15195-3 0  9992
2 52086  51.6419 172.0419 0005020  30.4744  71.6173 15.50043356350333
IHI-SAT                 
1 52147U 98067TJ  22201.34526194  .00053041  00000+0  67429-3 0  9993
2 52147  51.6359 168.0831 0005747  50.8685 309.2818 15.58833193 18446
KITSUNE                 
1 52148U 98067TK  22201.47664534  .00030982  00000+0  44154-3 0  9998
2 52148  51.6412 168.7897 0005319  38.6094  50.2560 15.56023170 18383
CREW DRAGON 4           
1 52318U 22042A   22201.40857775  .00008240  00000+0  15195-3 0  9996
2 52318  51.6419 172.0419 0005020  30.4744  71.6173 15.50043356350331
TIANZHOU-4              
1 52509U 22050A   22201.26491898 -.00021137  00000+0 -23846-3 0  9995
2 52509  41.4751  17.5085 0006828 249.4421  97.9198 15.61257941 69932
PROGRESS-MS 20          
1 52795U 22059A   22201.40857775  .00008240  00000+0  15195-3 0  9993
2 52795  51.6419 172.0419 0005020  30.4744  71.6173 15.50043356350330
SHENZHOU 14             
1 52797U 22060A   22201.26491898 -.00021137  00000+0 -23846-3 0  9995
2 52797  41.4751  17.5085 0006828 249.4421  97.9198 15.61257941 69931
ISS DEB                 
1 52952U 98067TP  22201.50651026  .00052295  00000+0  85728-3 0  9990
2 52952  51.6419 171.4160 0006316  34.8573 325.2829 15.51915623  2738
DRAGON CRS-25           
1 53113U 22081A   22201.40857775  .00008240  00000+0  15195-3 0  9993
2 53113  51.6419 172.0419 0005020  30.4744  71.6173 15.50043356350335
