[{
  "OBJECT_NAME": "1998-067TD",
  "OBJECT_ID": "1998-067TD",
  "EPOCH": "2022-07-20T10:29:18.564288",
  "MEAN_MOTION": 15.65185387,
  "ECCENTRICITY": 0.0007189,
  "INCLINATION": 51.636,
  "RA_OF_ASC_NODE": 162.7005,
  "ARG_OF_PERICENTER": 18.194,
  "MEAN_ANOMALY": 341.9312,
  "EPHEMERIS_TYPE": 0,
  "CLASSIFICATION_TYPE": "U",
  "NORAD_CAT_ID": 51441,
  "ELEMENT_SET_NO": 999,
  "REV_AT_EPOCH": 2733,
  "BSTAR": 0.0007646,
  "MEAN_MOTION_DOT": 0.00077439,
  "MEAN_MOTION_DDOT": 0
},{
  "OBJECT_NAME": "PATCOOL",
  "OBJECT_ID": "1998-067TE",
  "EPOCH": "2022-07-20T08:16:53.873472",
  "MEAN_MOTION": 15.65544039,
  "ECCENTRICITY": 0.0007419,
  "INCLINATION": 51.6344,
  "RA_OF_ASC_NODE": 162.8191,
  "ARG_OF_PERICENTER": 22.5339,
  "MEAN_ANOMALY": 337.5981,
  "EPHEMERIS_TYPE": 0,
  "CLASSIFICATION_TYPE": "U",
  "NORAD_CAT_ID": 51442,
  "ELEMENT_SET_NO": 999,
  "REV_AT_EPOCH": 2728,
  "BSTAR": 0.00075815,
  "MEAN_MOTION_DOT": 0.00077906,
  "MEAN_MOTION_DDOT": 0
},{
  "OBJECT_NAME": "LIGHT-1",
  "OBJECT_ID": "1998-067TG",
  "EPOCH": "2022-07-20T11:34:10.244064",
  "MEAN_MOTION": 15.61248682,
  "ECCENTRICITY": 0.0008058,
  "INCLINATION": 51.6387,
  "RA_OF_ASC_NODE": 164.5168,
  "ARG_OF_PERICENTER": 8.0313,
  "MEAN_ANOMALY": 352.0808,
  "EPHEMERIS_TYPE": 0,
  "CLASSIFICATION_TYPE": "U",
  "NORAD_CAT_ID": 51509,
  "ELEMENT_SET_NO": 999,
  "REV_AT_EPOCH": 2605,
  "BSTAR": 0.00039404,
  "MEAN_MOTION_DOT": 0.00033737,
  "MEAN_MOTION_DDOT": 0
},{
  "OBJECT_NAME": "PROGRESS-MS 19",
  "OBJECT_ID": "2022-014A",
  "EPOCH": "2022-07-20T09:48:21.117600",
  "MEAN_MOTION": 15.50043356,
  "ECCENTRICITY": 0.000502,
  "INCLINATION": 51.6419,
  "RA_OF_ASC_NODE": 172.0419,
  "ARG_OF_PERICENTER": 30.4744,
  "MEAN_ANOMALY": 71.6173,
  "EPHEMERIS_TYPE": 0,
  "CLASSIFICATION_TYPE": "U",
  "NORAD_CAT_ID": 51660,
  "ELEMENT_SET_NO": 999,
  "REV_AT_EPOCH": 35033,
  "BSTAR": 0.00015195,
  "MEAN_MOTION_DOT": 8.24e-5,
  "MEAN_MOTION_DDOT": 0
},{
  "OBJECT_NAME": "SOYUZ-MS 21",
  "OBJECT_ID": "2022-028A",
  "EPOCH": "2022-07-20T09:48:21.117600",
  "MEAN_MOTION": 15.50043356,
  "ECCENTRICITY": 0.000502,
  "INCLINATION": 51.6419,
  "RA_OF_ASC_NODE": 172.0419,
  "ARG_OF_PERICENTER": 30.4744,
  "MEAN_ANOMALY": 71.6173,
  "EPHEMERIS_TYPE": 0,
  "CLASSIFICATION_TYPE": "U",
  "NORAD_CAT_ID": 52086,
  "ELEMENT_SET_NO": 999,
  "REV_AT_EPOCH": 35033,
  "BSTAR": 0.00015195,
  "MEAN_MOTION_DOT": 8.24e-5,
  "MEAN_MOTION_DDOT": 0
},{
  "OBJECT_NAME": "IHI-SAT",
  "OBJECT_ID": "1998-067TJ",
  "EPOCH": "2022-07-20T08:17:10.631616",
  "MEAN_MOTION": 15.58833193,
  "ECCENTRICITY": 0.0005747,
  "INCLINATION": 51.6359,
  "RA_OF_ASC_NODE": 168.0831,
  "ARG_OF_PERICENTER": 50.8685,
  "MEAN_ANOMALY": 309.2818,
  "EPHEMERIS_TYPE": 0,
  "CLASSIFICATION_TYPE": "U",
  "NORAD_CAT_ID": 52147,
  "ELEMENT_SET_NO": 999,
  "REV_AT_EPOCH": 1844,
  "BSTAR": 0.00067429,
  "MEAN_MOTION_DOT": 0.00053041,
  "MEAN_MOTION_DDOT": 0
},{
  "OBJECT_NAME": "KITSUNE",
  "OBJECT_ID": "1998-067TK",
  "EPOCH": "2022-07-20T11:26:22.157376",
  "MEAN_MOTION": 15.5602317,
  "ECCENTRICITY": 0.0005319,
  "INCLINATION": 51.6412,
  "RA_OF_ASC_NODE": 168.7897,
  "ARG_OF_PERICENTER": 38.6094,
  "MEAN_ANOMALY": 50.256,
  "EPHEMERIS_TYPE": 0,
  "CLASSIFICATION_TYPE": "U",
  "NORAD_CAT_ID": 52148,
  "ELEMENT_SET_NO": 999,
  "REV_AT_EPOCH": 1838,
  "BSTAR": 0.00044154,
  "MEAN_MOTION_DOT": 0.00030982,
  "MEAN_MOTION_DDOT": 0
},{
  "OBJECT_NAME": "CREW DRAGON 4",
  "OBJECT_ID": "2022-042A",
  "EPOCH": "2022-07-20T09:48:21.117600",
  "MEAN_MOTION": 15.50043356,
  "ECCENTRICITY": 0.000502,
  "INCLINATION": 51.6419,
  "RA_OF_ASC_NODE": 172.0419,
  "ARG_OF_PERICENTER": 30.4744,
  "MEAN_ANOMALY": 71.6173,
  "EPHEMERIS_TYPE": 0,
  "CLASSIFICATION_TYPE": "U",
  "NORAD_CAT_ID": 52318,
  "ELEMENT_SET_NO": 999,
  "REV_AT_EPOCH": 35033,
  "BSTAR": 0.00015195,
  "MEAN_MOTION_DOT": 8.24e-5,
  "MEAN_MOTION_DDOT": 0
},{
  "OBJECT_NAME": "TIANZHOU-4",
  "OBJECT_ID": "2022-050A",
  "EPOCH": "2022-07-20T06:21:28.999872",
  "MEAN_MOTION": 15.61257941,
  "ECCENTRICITY": 0.0006828,
  "INCLINATION": 41.4751,
  "RA_OF_ASC_NODE": 17.5085,
  "ARG_OF_PERICENTER": 249.4421,
  "MEAN_ANOMALY": 97.9198,
  "EPHEMERIS_TYPE": 0,
  "CLASSIFICATION_TYPE": "U",
  "NORAD_CAT_ID": 52509,
  "ELEMENT_SET_NO": 999,
  "REV_AT_EPOCH": 6993,
  "BSTAR": -0.00023846,
  "MEAN_MOTION_DOT": -0.00021137,
  "MEAN_MOTION_DDOT": 0
},{
  "OBJECT_NAME": "PROGRESS-MS 20",
  "OBJECT_ID": "2022-059A",
  "EPOCH": "2022-07-20T09:48:21.117600",
  "MEAN_MOTION": 15.50043356,
  "ECCENTRICITY": 0.000502,
  "INCLINATION": 51.6419,
  "RA_OF_ASC_NODE": 172.0419,
  "ARG_OF_PERICENTER": 30.4744,
  "MEAN_ANOMALY": 71.6173,
  "EPHEMERIS_TYPE": 0,
  "CLASSIFICATION_TYPE": "U",
  "NORAD_CAT_ID": 52795,
  "ELEMENT_SET_NO": 999,
  "REV_AT_EPOCH": 35033,
  "BSTAR": 0.00015195,
  "MEAN_MOTION_DOT": 8.24e-5,
  "MEAN_MOTION_DDOT": 0
},{
  "OBJECT_NAME": "SHENZHOU 14",
  "OBJECT_ID": "2022-060A",
  "EPOCH": "2022-07-20T06:21:28.999872",
  "MEAN_MOTION": 15.61257941,
  "ECCENTRICITY": 0.0006828,
  "INCLINATION": 41.4751,
  "RA_OF_ASC_NODE": 17.5085,
  "ARG_OF_PERICENTER": 249.4421,
  "MEAN_ANOMALY": 97.9198,
  "EPHEMERIS_TYPE": 0,
  "CLASSIFICATION_TYPE": "U",
  "NORAD_CAT_ID": 52797,
  "ELEMENT_SET_NO": 999,
  "REV_AT_EPOCH": 6993,
  "BSTAR": -0.00023846,
  "MEAN_MOTION_DOT": -0.00021137,
  "MEAN_MOTION_DDOT": 0
},{
  "OBJECT_NAME": "ISS DEB",
  "OBJECT_ID": "1998-067TP",
  "EPOCH": "2022-07-20T12:09:22.486464",
  "MEAN_MOTION": 15.51915623,
  "ECCENTRICITY": 0.0006316,
  "INCLINATION": 51.6419,
  "RA_OF_ASC_NODE": 171.416,
  "ARG_OF_PERICENTER": 34.8573,
  "MEAN_ANOMALY": 325.2829,
  "EPHEMERIS_TYPE": 0,
  "CLASSIFICATION_TYPE": "U",
  "NORAD_CAT_ID": 52952,
  "ELEMENT_SET_NO": 999,
  "REV_AT_EPOCH": 273,
  "BSTAR": 0.00085728,
  "MEAN_MOTION_DOT": 0.00052295,
  "MEAN_MOTION_DDOT": 0
},{
  "OBJECT_NAME": "DRAGON CRS-25",
  "OBJECT_ID": "2022-081A",
  "EPOCH": "2022-07-20T09:48:21.117600",
  "MEAN_MOTION": 15.50043356,
  "ECCENTRICITY": 0.000502,
  "INCLINATION": 51.6419,
  "RA_OF_ASC_NODE": 172.0419,
  "ARG_OF_PERICENTER": 30.4744,
  "MEAN_ANOMALY": 71.6173,
  "EPHEMERIS_TYPE": 0,
  "CLASSIFICATION_TYPE": "U",
  "NORAD_CAT_ID": 53113,
  "ELEMENT_SET_NO": 999,
  "REV_AT_EPOCH": 35033,
  "BSTAR": 0.00015195,
  "MEAN_MOTION_DOT": 8.24e-5,
  "MEAN_MOTION_DDOT": 0
}]
